[{"OBJECT_NAME":"ONEWEB-0056","OBJECT_ID":"2020-008AE","EPOCH":"2026-06-16T03:18:50.061024","MEAN_MOTION":13.10377927,"ECCENTRICITY":0.000201,"INCLINATION":87.8842,"RA_OF_ASC_NODE":36.4701,"ARG_OF_PERICENTER":89.1572,"MEAN_ANOMALY":270.9786,"EPHEMERIS_TYPE":0,"CLASSIFICATION_TYPE":"U","NORAD_CAT_ID":45159,"ELEMENT_SET_NO":999,"REV_AT_EPOCH":30804,"BSTAR":-0.0007420600000000001,"MEAN_MOTION_DOT":-2.46e-06,"MEAN_MOTION_DDOT":0.0},{"OBJECT_NAME":"ONEWEB-0057","OBJECT_ID":"2020-008AF","EPOCH":"2026-06-16T03:43:08.196672","MEAN_MOTION":13.10374627,"ECCENTRICITY":0.0002143,"INCLINATION":87.8839,"RA_OF_ASC_NODE":36.4788,"ARG_OF_PERICENTER":71.1653,"MEAN_ANOMALY":288.9707,"EPHEMERIS_TYPE":0,"CLASSIFICATION_TYPE":"U","NORAD_CAT_ID":45160,"ELEMENT_SET_NO":999,"REV_AT_EPOCH":30821,"BSTAR":0.0013986,"MEAN_MOTION_DOT":5.01e-06,"MEAN_MOTION_DDOT":0.0},{"OBJECT_NAME":"ONEWEB-0058","OBJECT_ID":"2020-008AG","EPOCH":"2026-06-16T03:23:59.885376","MEAN_MOTION":13.10375617,"ECCENTRICITY":0.0001566,"INCLINATION":87.8832,"RA_OF_ASC_NODE":36.4877,"ARG_OF_PERICENTER":83.1506,"MEAN_ANOMALY":276.98,"EPHEMERIS_TYPE":0,"CLASSIFICATION_TYPE":"U","NORAD_CAT_ID":45161,"ELEMENT_SET_NO":999,"REV_AT_EPOCH":30828,"BSTAR":-0.00045993,"MEAN_MOTION_DOT":-1.48e-06,"MEAN_MOTION_DDOT":0.0},{"OBJECT_NAME":"ONEWEB-0059","OBJECT_ID":"2020-008AH","EPOCH":"2026-06-16T03:19:12.611424","MEAN_MOTION":13.10377884,"ECCENTRICITY":0.0001681,"INCLINATION":87.8835,"RA_OF_ASC_NODE":36.4873,"ARG_OF_PERICENTER":76.821,"MEAN_ANOMALY":283.3105,"EPHEMERIS_TYPE":0,"CLASSIFICATION_TYPE":"U","NORAD_CAT_ID":45162,"ELEMENT_SET_NO":999,"REV_AT_EPOCH":30818,"BSTAR":-0.00021227,"MEAN_MOTION_DOT":-6.1e-07,"MEAN_MOTION_DDOT":0.0},{"OBJECT_NAME":"ONEWEB-0062","OBJECT_ID":"2020-008AJ","EPOCH":"2026-06-16T03:52:18.369408","MEAN_MOTION":13.10373439,"ECCENTRICITY":0.0001482,"INCLINATION":87.8839,"RA_OF_ASC_NODE":36.4698,"ARG_OF_PERICENTER":92.9053,"MEAN_ANOMALY":267.2244,"EPHEMERIS_TYPE":0,"CLASSIFICATION_TYPE":"U","NORAD_CAT_ID":45163,"ELEMENT_SET_NO":999,"REV_AT_EPOCH":30805,"BSTAR":0.0019485,"MEAN_MOTION_DOT":6.93e-06,"MEAN_MOTION_DDOT":0.0},{"OBJECT_NAME":"ONEWEB-0065","OBJECT_ID":"2020-008AK","EPOCH":"2026-06-16T04:40:05.235456","MEAN_MOTION":13.10367298,"ECCENTRICITY":0.0002084,"INCLINATION":87.8828,"RA_OF_ASC_NODE":36.4704,"ARG_OF_PERICENTER":80.3885,"MEAN_ANOMALY":279.7478,"EPHEMERIS_TYPE":0,"CLASSIFICATION_TYPE":"U","NORAD_CAT_ID":45164,"ELEMENT_SET_NO":999,"REV_AT_EPOCH":30775,"BSTAR":-0.0029953999999999996,"MEAN_MOTION_DOT":-1.033e-05,"MEAN_MOTION_DDOT":0.0},{"OBJECT_NAME":"ONEWEB-0066","OBJECT_ID":"2020-020A","EPOCH":"2026-06-16T03:42:56.762496","MEAN_MOTION":13.11414962,"ECCENTRICITY":0.0001689,"INCLINATION":87.8886,"RA_OF_ASC_NODE":21.2765,"ARG_OF_PERICENTER":81.1994,"MEAN_ANOMALY":278.9325,"EPHEMERIS_TYPE":0,"CLASSIFICATION_TYPE":"U","NORAD_CAT_ID":45424,"ELEMENT_SET_NO":999,"REV_AT_EPOCH":30254,"BSTAR":-0.0014808,"MEAN_MOTION_DOT":-5.12e-06,"MEAN_MOTION_DDOT":0.0},{"OBJECT_NAME":"ONEWEB-0067","OBJECT_ID":"2020-020B","EPOCH":"2026-06-16T00:57:47.986272","MEAN_MOTION":13.1142457,"ECCENTRICITY":0.000195,"INCLINATION":87.8909,"RA_OF_ASC_NODE":21.2213,"ARG_OF_PERICENTER":81.6249,"MEAN_ANOMALY":278.51,"EPHEMERIS_TYPE":0,"CLASSIFICATION_TYPE":"U","NORAD_CAT_ID":45425,"ELEMENT_SET_NO":999,"REV_AT_EPOCH":30258,"BSTAR":0.0015074,"MEAN_MOTION_DOT":5.47e-06,"MEAN_MOTION_DDOT":0.0},{"OBJECT_NAME":"ONEWEB-0080","OBJECT_ID":"2020-020C","EPOCH":"2026-06-16T00:57:09.033696","MEAN_MOTION":13.11418138,"ECCENTRICITY":0.000158,"INCLINATION":87.8899,"RA_OF_ASC_NODE":21.2959,"ARG_OF_PERICENTER":92.7196,"MEAN_ANOMALY":267.4113,"EPHEMERIS_TYPE":0,"CLASSIFICATION_TYPE":"U","NORAD_CAT_ID":45426,"ELEMENT_SET_NO":999,"REV_AT_EPOCH":30255,"BSTAR":0.0015094,"MEAN_MOTION_DOT":5.48e-06,"MEAN_MOTION_DDOT":0.0},{"OBJECT_NAME":"ONEWEB-0090","OBJECT_ID":"2020-020D","EPOCH":"2026-06-16T07:08:14.604864","MEAN_MOTION":13.11414009,"ECCENTRICITY":0.0001761,"INCLINATION":87.8894,"RA_OF_ASC_NODE":21.2489,"ARG_OF_PERICENTER":87.3342,"MEAN_ANOMALY":272.7988,"EPHEMERIS_TYPE":0,"CLASSIFICATION_TYPE":"U","NORAD_CAT_ID":45427,"ELEMENT_SET_NO":999,"REV_AT_EPOCH":30255,"BSTAR":-0.00027972,"MEAN_MOTION_DOT":-8.6e-07,"MEAN_MOTION_DDOT":0.0},{"OBJECT_NAME":"ONEWEB-0061","OBJECT_ID":"2020-020E","EPOCH":"2026-06-16T02:24:37.387872","MEAN_MOTION":13.11419483,"ECCENTRICITY":0.0001743,"INCLINATION":87.8893,"RA_OF_ASC_NODE":21.273,"ARG_OF_PERICENTER":84.7953,"MEAN_ANOMALY":275.3374,"EPHEMERIS_TYPE":0,"CLASSIFICATION_TYPE":"U","NORAD_CAT_ID":45428,"ELEMENT_SET_NO":999,"REV_AT_EPOCH":30248,"BSTAR":-0.00031424000000000003,"MEAN_MOTION_DOT":-9.9e-07,"MEAN_MOTION_DDOT":0.0},{"OBJECT_NAME":"ONEWEB-0081","OBJECT_ID":"2020-020F","EPOCH":"2026-06-16T03:47:49.695648","MEAN_MOTION":13.11415334,"ECCENTRICITY":0.0001796,"INCLINATION":87.889,"RA_OF_ASC_NODE":21.2718,"ARG_OF_PERICENTER":78.6044,"MEAN_ANOMALY":281.5286,"EPHEMERIS_TYPE":0,"CLASSIFICATION_TYPE":"U","NORAD_CAT_ID":45429,"ELEMENT_SET_NO":999,"REV_AT_EPOCH":30260,"BSTAR":-0.0014212,"MEAN_MOTION_DOT":-4.91e-06,"MEAN_MOTION_DDOT":0.0},{"OBJECT_NAME":"ONEWEB-0069","OBJECT_ID":"2020-020G","EPOCH":"2026-06-16T02:00:35.758080","MEAN_MOTION":13.11415213,"ECCENTRICITY":0.0001867,"INCLINATION":87.8893,"RA_OF_ASC_NODE":21.2891,"ARG_OF_PERICENTER":82.1623,"MEAN_ANOMALY":277.9717,"EPHEMERIS_TYPE":0,"CLASSIFICATION_TYPE":"U","NORAD_CAT_ID":45430,"ELEMENT_SET_NO":999,"REV_AT_EPOCH":30252,"BSTAR":-0.0011003,"MEAN_MOTION_DOT":-3.77e-06,"MEAN_MOTION_DDOT":0.0},{"OBJECT_NAME":"ONEWEB-0031","OBJECT_ID":"2020-020H","EPOCH":"2026-06-16T01:01:50.022048","MEAN_MOTION":13.11417819,"ECCENTRICITY":0.0001714,"INCLINATION":87.8883,"RA_OF_ASC_NODE":21.3029,"ARG_OF_PERICENTER":90.289,"MEAN_ANOMALY":269.8434,"EPHEMERIS_TYPE":0,"CLASSIFICATION_TYPE":"U","NORAD_CAT_ID":45431,"ELEMENT_SET_NO":999,"REV_AT_EPOCH":30250,"BSTAR":0.0015742999999999998,"MEAN_MOTION_DOT":5.71e-06,"MEAN_MOTION_DDOT":0.0},{"OBJECT_NAME":"ONEWEB-0027","OBJECT_ID":"2020-020J","EPOCH":"2026-06-16T08:00:01.999872","MEAN_MOTION":13.17632857,"ECCENTRICITY":0.000196,"INCLINATION":87.9138,"RA_OF_ASC_NODE":6.035,"ARG_OF_PERICENTER":104.7885,"MEAN_ANOMALY":176.726,"EPHEMERIS_TYPE":0,"CLASSIFICATION_TYPE":"U","NORAD_CAT_ID":45432,"ELEMENT_SET_NO":999,"REV_AT_EPOCH":513,"BSTAR":0.034267,"MEAN_MOTION_DOT":0.00013334,"MEAN_MOTION_DDOT":0.0},{"OBJECT_NAME":"ONEWEB-0064","OBJECT_ID":"2020-020K","EPOCH":"2026-06-16T00:59:23.800416","MEAN_MOTION":13.11416994,"ECCENTRICITY":0.0001786,"INCLINATION":87.889,"RA_OF_ASC_NODE":21.2948,"ARG_OF_PERICENTER":91.6519,"MEAN_ANOMALY":268.4813,"EPHEMERIS_TYPE":0,"CLASSIFICATION_TYPE":"U","NORAD_CAT_ID":45433,"ELEMENT_SET_NO":999,"REV_AT_EPOCH":30253,"BSTAR":0.0015073,"MEAN_MOTION_DOT":5.47e-06,"MEAN_MOTION_DDOT":0.0}]