ONEWEB-0056             
1 45159U 20008AE  26167.13807941 -.00000246  00000+0 -74206-3 0  9994
2 45159  87.8842  36.4701 0002010  89.1572 270.9786 13.10377927308043
ONEWEB-0057             
1 45160U 20008AF  26167.15495598  .00000501  00000+0  13986-2 0  9998
2 45160  87.8839  36.4788 0002143  71.1653 288.9707 13.10374627308219
ONEWEB-0058             
1 45161U 20008AG  26167.14166534 -.00000148  00000+0 -45993-3 0  9996
2 45161  87.8832  36.4877 0001566  83.1506 276.9800 13.10375617308288
ONEWEB-0059             
1 45162U 20008AH  26167.13834041 -.00000061  00000+0 -21227-3 0  9999
2 45162  87.8835  36.4873 0001681  76.8210 283.3105 13.10377884308184
ONEWEB-0062             
1 45163U 20008AJ  26167.16132372  .00000693  00000+0  19485-2 0  9992
2 45163  87.8839  36.4698 0001482  92.9053 267.2244 13.10373439308050
ONEWEB-0065             
1 45164U 20008AK  26167.19450504 -.00001033  00000+0 -29954-2 0  9999
2 45164  87.8828  36.4704 0002084  80.3885 279.7478 13.10367298307759
ONEWEB-0066             
1 45424U 20020A   26167.15482364 -.00000512  00000+0 -14808-2 0  9990
2 45424  87.8886  21.2765 0001689  81.1994 278.9325 13.11414962302547
ONEWEB-0067             
1 45425U 20020B   26167.04013873  .00000547  00000+0  15074-2 0  9996
2 45425  87.8909  21.2213 0001950  81.6249 278.5100 13.11424570302588
ONEWEB-0080             
1 45426U 20020C   26167.03968789  .00000548  00000+0  15094-2 0  9994
2 45426  87.8899  21.2959 0001580  92.7196 267.4113 13.11418138302558
ONEWEB-0090             
1 45427U 20020D   26167.29739126 -.00000086  00000+0 -27972-3 0  9992
2 45427  87.8894  21.2489 0001761  87.3342 272.7988 13.11414009302558
ONEWEB-0061             
1 45428U 20020E   26167.10043273 -.00000099  00000+0 -31424-3 0  9995
2 45428  87.8893  21.2730 0001743  84.7953 275.3374 13.11419483302487
ONEWEB-0081             
1 45429U 20020F   26167.15821407 -.00000491  00000+0 -14212-2 0  9995
2 45429  87.8890  21.2718 0001796  78.6044 281.5286 13.11415334302608
ONEWEB-0069             
1 45430U 20020G   26167.08374720 -.00000377  00000+0 -11003-2 0  9998
2 45430  87.8893  21.2891 0001867  82.1623 277.9717 13.11415213302522
ONEWEB-0031             
1 45431U 20020H   26167.04294007  .00000571  00000+0  15743-2 0  9993
2 45431  87.8883  21.3029 0001714  90.2890 269.8434 13.11417819302501
ONEWEB-0027             
1 45432U 20020J   26167.33335648  .00013334  00000+0  34267-1 0  9995
2 45432  87.9138   6.0350 0001960 104.7885 176.7260 13.17632857  5130
ONEWEB-0064             
1 45433U 20020K   26167.04124769  .00000547  00000+0  15073-2 0  9991
2 45433  87.8890  21.2948 0001786  91.6519 268.4813 13.11416994302534
